IRIDIUM 106             
1 41917U 17003A   23293.75492214  .00000338  00000+0  11361-3 0  9994
2 41917  86.3954 134.1178 0001944  91.2981 268.8438 14.34215956354115
IRIDIUM 103             
1 41918U 17003B   23293.53293788  .00000411  00000+0  13962-3 0  9997
2 41918  86.3950 134.1135 0001895  81.3520 278.7891 14.34215361354101
IRIDIUM 109             
1 41919U 17003C   23293.53928647  .00000024  00000+0  13302-5 0  9997
2 41919  86.3954 134.1543 0002275  82.7803 277.3652 14.34214268354072
IRIDIUM 102             
1 41920U 17003D   23293.92615679  .00000022  00000+0  72651-6 0  9991
2 41920  86.3948 133.9368 0002320  85.4803 274.6658 14.34210187354218
IRIDIUM 105             
1 41921U 17003E   23293.89681257  .00000227  00000+0  74042-4 0  9994
2 41921  86.3921 102.3595 0001995  89.4121 270.7303 14.34224694356063
IRIDIUM 104             
1 41922U 17003F   23293.93885800  .00000163  00000+0  51202-4 0  9992
2 41922  86.3951 133.9593 0002068  81.4378 278.7052 14.34214178354202
IRIDIUM 114             
1 41923U 17003G   23293.52659531  .00000493  00000+0  16896-3 0  9993
2 41923  86.3949 134.1198 0002114  81.0949 279.0486 14.34216930354142
IRIDIUM 108             
1 41924U 17003H   23293.48511633  .00000212  00000+0  68597-4 0  9994
2 41924  86.3915 102.4722 0001849  95.7618 264.3789 14.34219208355972
